ESTCUBE 1               
1 39161U 13021C   22091.85868402  .00000961  00000+0  15812-3 0  9997
2 39161  97.9119 171.0865 0008682 313.3277  46.7249 14.72754144478196
FENGYUN 3C              
1 39260U 13052A   22091.81018396  .00000093  00000+0  68005-4 0  9995
2 39260  98.4641 123.7724 0012012 131.4618 228.7585 14.15908464441075
CASSIOPE                
1 39265U 13055A   22091.81924794  .00017026  00000+0  46181-3 0  9995
2 39265  80.9689 348.4920 0631163 184.9644 174.5098 14.36567858441324
ZACUBE-1 (TSHEPISOSAT)  
1 39417U 13066B   22091.87899853  .00003931  00000+0  48813-3 0  9993
2 39417  97.6294  66.8835 0056592 296.4856  63.0560 14.82017428451788
CINEMA-3 (KHUSAT-2)     
1 39426U 13066L   22091.77800696  .00001432  00000+0  22749-3 0  9993
2 39426  97.7923  35.0824 0104877 121.0472 240.1082 14.69953168448004
TRITON-1                
1 39427U 13066M   22091.83269262  .00001871  00000+0  29986-3 0  9996
2 39427  97.8079  31.0049 0113194 148.8999 211.8972 14.68650048447536
DELFI-N3XT              
1 39428U 13066N   22091.82642725  .00003461  00000+0  54211-3 0  9991
2 39428  97.8101  29.5317 0118725 162.0671 198.4779 14.68674250447281
GOMX-1                  
1 39430U 13066Q   22091.90577208  .00001536  00000+0  28371-3 0  9995
2 39430  97.8127   3.4706 0148564 286.5283  71.9657 14.59973115445123
BRITE-PL1 (LEM)         
1 39431U 13066R   22091.84016944  .00000676  00000+0  15208-3 0  9993
2 39431  97.7120 312.3162 0203114 105.9587 256.4088 14.47272251441289
ICUBE-1                 
1 39432U 13066S   22091.77844868  .00004556  00000+0  45571-3 0  9997
2 39432  97.4696  99.5510 0032095 157.5982 202.6647 14.91517747453273
HUMSAT-D                
1 39433U 13066T   22091.73417625  .00006153  00000+0  58035-3 0  9995
2 39433  97.4547 106.9909 0031244 134.0617 226.3185 14.93742530453760
VELOX-PII               
1 39438U 13066Y   22091.90322521  .00003510  00000+0  46716-3 0  9996
2 39438  97.6841  57.9581 0069443 347.2770  12.6687 14.78628715449696
FIRST-MOVE              
1 39439U 13066Z   22091.87213675  .00007858  00000+0  92774-3 0  9996
2 39439  97.6313  69.0154 0061878 292.4662  67.0007 14.83572244450699
CUBEBUG-2 (LO-74)       
1 39440U 13066AA  22091.89606330  .00004205  00000+0  57712-3 0  9990
2 39440  97.7185  52.7228 0079850  21.0104 339.4356 14.76697426448980
NEE-02 KRYSAOR          
1 39441U 13066AB  22091.83459712  .00002854  00000+0  40417-3 0  9997
2 39441  97.7291  49.8897 0081898  33.9761 326.6655 14.75510366448733
FUNCUBE-1 (AO-73)       
1 39444U 13066AE  22091.88223695  .00004629  00000+0  56045-3 0  9990
2 39444  97.6178  69.2840 0055374 284.8864  74.6222 14.83029080450172
HINCUBE                 
1 39445U 13066AF  22091.85661113  .00004159  00000+0  50643-3 0  9995
2 39445  97.6192  69.0877 0055439 287.1618  72.3531 14.82842575450115
UWE-3                   
1 39446U 13066AG  22091.84678399  .00003963  00000+0  51926-3 0  9996
2 39446  97.6776  59.2732 0068551 340.4839  19.3750 14.79258435449138
AIST-1 (RS-41)          
1 39492U 13078C   22091.81279056  .00000902  00000+0  94756-4 0  9993
2 39492  82.4187 309.9516 0020114   4.9869 355.1544 14.88272488448382
SPROUT                  
1 39770U 14029E   22091.91355885  .00006347  00000+0  66607-3 0  9997
2 39770  97.9317 208.4829 0007986 346.5968  13.5109 14.89838990426266
UNISAT-6                
1 40012U 14033C   22091.78436949  .00001902  00000+0  28430-3 0  9993
2 40012  97.6637 283.8458 0058728  48.3277 312.2938 14.74676656418683
BUGSAT-1 (TITA)         
1 40014U 14033E   22091.97845630  .00002387  00000+0  21505-3 0  9991
2 40014  98.1398  87.2947 0029948 291.9261  67.8777 14.96310864424709
DUCHIFAT-1              
1 40021U 14033M   22091.84818199  .00006766  00000+0  66822-3 0  9991
2 40021  98.0056  40.7304 0011188 297.2200  62.7878 14.92236740423270
NANOSATC-BR1            
1 40024U 14033Q   22091.79651556  .00005942  00000+0  60319-3 0  9990
2 40024  97.9800  34.4402 0010573 305.4555  54.5675 14.91190249422555
QB50P1                  
1 40025U 14033R   22091.78246273  .00004829  00000+0  50532-3 0  9995
2 40025  97.9560  28.6354 0011079 315.9114  44.1219 14.90062686422347
DTUSAT-2                
1 40030U 14033W   22091.80870612  .00004357  00000+0  46223-3 0  9992
2 40030  97.9341  24.3112 0010559 311.8187  48.2127 14.89556841422232
QB50P2                  
1 40032U 14033Y   22091.77933585  .00003989  00000+0  42410-3 0  9993
2 40032  97.9347  24.2936 0010506 313.4229  46.6112 14.89525787422208
POLYITAN-1              
1 40042U 14033AJ  22091.79563286  .00005146  00000+0  53867-3 0  9998
2 40042  97.9663  29.7419 0013183 306.0133  53.9862 14.89996862422234
TIGRISAT                
1 40043U 14033AK  22091.77032903  .00001487  00000+0  22271-3 0  9993
2 40043  97.6588 285.1639 0060465  45.8978 314.7184 14.74825164418320
AISAT                   
1 40054U 14034B   22091.80961899  .00006101  00000+0  82888-3 0  9993
2 40054  98.3515 260.2193 0012431 195.9618 164.1202 14.79158756418146
CANX-4                  
1 40055U 14034C   22091.36250757  .00001297  00000+0  19945-3 0  9994
2 40055  98.3446 245.8474 0013147 240.7923 119.1970 14.75275051417352
CANX-5                  
1 40056U 14034D   22091.36871789  .00001309  00000+0  20121-3 0  9991
2 40056  98.3445 245.8356 0013173 241.0233 118.9655 14.75268970408166
VELOX-I                 
1 40057U 14034E   22091.72432274  .00002395  00000+0  33360-3 0  9999
2 40057  98.3575 261.2618 0010398 209.8754 150.1866 14.78736062418135
METEOR-M 2              
1 40069U 14037A   22091.76852346 -.00000003  00000+0  18036-4 0  9994
2 40069  98.4387 113.0490 0005717 172.2818 187.8435 14.20700976400979
DX1                     
1 40071U 14037C   22091.82966563  .00000771  00000+0  10526-3 0  9997
2 40071  98.4219 316.7149 0007964 194.8420 165.2562 14.81718802417999
UKUBE-1                 
1 40074U 14037F   22091.88677617  .00001921  00000+0  23192-3 0  9996
2 40074  98.3951 328.5246 0004386 162.3388 197.8053 14.85051018418700
FIREBIRD 3              
1 40377U 15003B   22091.82950658  .00024671  00000+0  79475-3 0  9991
2 40377  99.1108 299.8017 0106067 284.3007  74.6467 15.26827858396713
FIREBIRD 4              
1 40378U 15003C   22091.79401697  .00025555  00000+0  82093-3 0  9994
2 40378  99.1110 299.9522 0106086 284.0964  74.8497 15.26903773396715
GRIFEX                  
1 40379U 15003D   22091.80572464  .00016854  00000+0  62362-3 0  9997
2 40379  99.1182 286.6676 0119689 324.1078  35.2153 15.21231017395969
CP10 (EXOCUBE)          
1 40380U 15003E   22091.81764673  .00011102  00000+0  44024-3 0  9991
2 40380  99.1243 279.8752 0126700 346.8281  12.9649 15.18430459395528
DEORBITSAIL             
1 40719U 15032E   22091.88666932  .00003876  00000+0  54326-3 0  9990
2 40719  97.7933 332.7532 0014584 252.3277 107.6342 14.77987551362576
NUDT-PHONESAT           
1 40900U 15049B   22091.79978431  .00025539  00000+0  83499-3 0  9993
2 40900  97.4075 109.5801 0010172 185.2565 260.5992 15.31653116362864
XW-2A                   
1 40903U 15049E   22091.80011417  .00022251  00000+0  39706-3 0  9990
2 40903  97.1934 150.3624 0011861  48.2968  87.5284 15.50000120367370
XW-2C                   
1 40906U 15049H   22091.95957841  .00006273  00000+0  31028-3 0  9994
2 40906  97.4947  96.0333 0012095 263.7769 151.1896 15.18112859361318
XW-2D                   
1 40907U 15049J   22091.82672777  .00007097  00000+0  34557-3 0  9998
2 40907  97.4936  95.8241 0011494 259.5358 222.6172 15.18618635361337
LILACSAT-2              
1 40908U 15049K   22091.84132038  .00003499  00000+0  18933-3 0  9994
2 40908  97.5174  93.2152 0013705 284.1642 197.1035 15.15238872360884
XW-2E                   
1 40909U 15049L   22091.85353275  .00010637  00000+0  47013-3 0  9997
2 40909  97.4684 100.2322 0010696 237.7434 243.1970 15.21843209361757
XW-2F                   
1 40910U 15049M   22091.82143782  .00010592  00000+0  47506-3 0  9993
2 40910  97.4750  99.3168 0011921 239.0918 245.2658 15.21330377361521
XW-2B                   
1 40911U 15049N   22091.79027833  .00007058  00000+0  34469-3 0  9995
2 40911  97.4923  96.4126 0011391 261.3897 273.6664 15.18518507361218
KAITUO 1B               
1 40912U 15049P   22091.78678304  .00011854  00000+0  48848-3 0  9995
2 40912  97.4418 103.6460 0012770 202.4857 332.2453 15.24168314362060
TIANWANG 1A (TW-1A)     
1 40928U 15051D   22091.81172588  .00037936  00000+0  59697-3 0  9995
2 40928  97.0506 115.4411 0006613 319.7556 215.2442 15.53483126366318
LAPAN-A2                
1 40931U 15052B   22091.46107185  .00000797  00000+0  21849-4 0  9996
2 40931   6.0021 358.2656 0012846 161.2724 198.7877 14.76756575351949
LQSAT                   
1 40958U 15057A   22091.86388148  .00000366  00000+0  63944-4 0  9998
2 40958  97.7607 141.4711 0017356 203.5228 156.5184 14.73284805348712
ATHENOXAT 1             
1 41168U 15077C   22091.89310171  .00015530  00000+0  69006-3 0  9991
2 41168  14.9854 296.9775 0008611 252.2770 139.7571 15.18692349348645
GALASSIA                
1 41170U 15077E   22091.19726284  .00016822  00000+0  75380-3 0  9990
2 41170  14.9884 292.5562 0011305 265.6306  94.2723 15.18495349348458
VELOX-II                
1 41171U 15077F   22091.09881453  .00014748  00000+0  74069-3 0  9998
2 41171  14.9921   2.6908 0007911 110.6133 249.5037 15.14420485347862
CHUBUSAT-2              
1 41338U 16012B   22091.86887266  .00003341  00000+0  24856-3 0  9992
2 41338  31.0021 151.4075 0013510 113.5574 246.6482 15.01027473335965
CHUBUSAT-3              
1 41339U 16012C   22091.86636318  .00002076  00000+0  15156-3 0  9990
2 41339  31.0093 148.3973 0013137 121.4750 238.7194 15.01129739335966
HORYU-4                 
1 41340U 16012D   22091.80203203  .00005845  00000+0  42026-3 0  9992
2 41340  31.0038 128.4434 0013679 158.5695 201.5516 15.02719810336185
